{
  "updatedAt": "2026-03-20T16:26:01.420Z",
  "entries": {
    "snusat-1-42727": {
      "fetchedAt": "2026-03-20T13:09:35.883Z",
      "fleetEntry": {
        "id": "snusat-1-42727",
        "name": "SNUSAT-1",
        "englishName": "SNUSAT-1",
        "domesticName": "SNUSAT-1",
        "color": "#f6bd60",
        "norad": "42727",
        "orbitClass": "leo",
        "orbitLabel": "LEO",
        "missionType": "technology",
        "missionLabel": "기술실증/학술",
        "operationalStatus": "비현역",
        "objectId": "1998-067MG",
        "launchDate": "1998-11-20",
        "sourceDate": "2019-03-30",
        "sourceLabel": "Space-Track cached GP",
        "omm": {
          "CCSDS_OMM_VERS": "3.0",
          "COMMENT": "GENERATED VIA SPACE-TRACK.ORG API",
          "CREATION_DATE": "2019-03-31T06:36:15",
          "ORIGINATOR": "18 SPCS",
          "OBJECT_NAME": "SNUSAT-1",
          "OBJECT_ID": "1998-067MG",
          "CENTER_NAME": "EARTH",
          "REF_FRAME": "TEME",
          "TIME_SYSTEM": "UTC",
          "MEAN_ELEMENT_THEORY": "SGP4",
          "EPOCH": "2019-03-30T22:01:53.334624",
          "MEAN_MOTION": 16.3798046,
          "ECCENTRICITY": 0.0009316,
          "INCLINATION": 51.6087,
          "RA_OF_ASC_NODE": 308.8243,
          "ARG_OF_PERICENTER": 268.9251,
          "MEAN_ANOMALY": 91.0707,
          "EPHEMERIS_TYPE": 0,
          "CLASSIFICATION_TYPE": "U",
          "NORAD_CAT_ID": 42727,
          "ELEMENT_SET_NO": 999,
          "REV_AT_EPOCH": 10586,
          "BSTAR": 0.00059073,
          "MEAN_MOTION_DOT": 0.06519165,
          "MEAN_MOTION_DDOT": 0.000012339,
          "SEMIMAJOR_AXIS": "6549.317",
          "PERIOD": "87.913",
          "APOAPSIS": "177.283",
          "PERIAPSIS": "165.080",
          "OBJECT_TYPE": "PAYLOAD",
          "RCS_SIZE": "SMALL",
          "COUNTRY_CODE": "SKOR",
          "LAUNCH_DATE": "1998-11-20",
          "SITE": "TTMTR",
          "DECAY_DATE": "2019-03-31",
          "FILE": "2434752",
          "GP_ID": "128086699",
          "TLE_LINE0": "0 SNUSAT-1",
          "TLE_LINE1": "1 42727U 98067MG  19089.91797841  .06519165  12339-4  59073-3 0  9997",
          "TLE_LINE2": "2 42727  51.6087 308.8243 0009316 268.9251  91.0707 16.37980460105869"
        }
      }
    },
    "snusat-1b-42733": {
      "fetchedAt": "2026-03-20T13:09:35.883Z",
      "fleetEntry": {
        "id": "snusat-1b-42733",
        "name": "SNUSAT-1B",
        "englishName": "SNUSAT-1B",
        "domesticName": "SNUSAT-1B",
        "color": "#7bdff2",
        "norad": "42733",
        "orbitClass": "leo",
        "orbitLabel": "LEO",
        "missionType": "technology",
        "missionLabel": "기술실증/학술",
        "operationalStatus": "비현역",
        "objectId": "1998-067MN",
        "launchDate": "1998-11-20",
        "sourceDate": "2019-03-14",
        "sourceLabel": "Space-Track cached GP",
        "omm": {
          "CCSDS_OMM_VERS": "3.0",
          "COMMENT": "GENERATED VIA SPACE-TRACK.ORG API",
          "CREATION_DATE": "2019-03-14T20:30:13",
          "ORIGINATOR": "18 SPCS",
          "OBJECT_NAME": "SNUSAT-1B",
          "OBJECT_ID": "1998-067MN",
          "CENTER_NAME": "EARTH",
          "REF_FRAME": "TEME",
          "TIME_SYSTEM": "UTC",
          "MEAN_ELEMENT_THEORY": "SGP4",
          "EPOCH": "2019-03-14T19:35:55.470336",
          "MEAN_MOTION": 16.49371243,
          "ECCENTRICITY": 0.0005433,
          "INCLINATION": 51.6021,
          "RA_OF_ASC_NODE": 29.3648,
          "ARG_OF_PERICENTER": 200.702,
          "MEAN_ANOMALY": 239.9908,
          "EPHEMERIS_TYPE": 0,
          "CLASSIFICATION_TYPE": "U",
          "NORAD_CAT_ID": 42733,
          "ELEMENT_SET_NO": 999,
          "REV_AT_EPOCH": 10324,
          "BSTAR": 0.00028234,
          "MEAN_MOTION_DOT": 0.22721454,
          "MEAN_MOTION_DDOT": 0.000012576,
          "SEMIMAJOR_AXIS": "6519.128",
          "PERIOD": "87.305",
          "APOAPSIS": "144.535",
          "PERIAPSIS": "137.451",
          "OBJECT_TYPE": "PAYLOAD",
          "RCS_SIZE": "SMALL",
          "COUNTRY_CODE": "SKOR",
          "LAUNCH_DATE": "1998-11-20",
          "SITE": "TTMTR",
          "DECAY_DATE": "2019-03-14",
          "FILE": "2424898",
          "GP_ID": "127326870",
          "TLE_LINE0": "0 SNUSAT-1B",
          "TLE_LINE1": "1 42733U 98067MN  19073.81661424  .22721454  12576-4  28234-3 0  9995",
          "TLE_LINE2": "2 42733  51.6021  29.3648 0005433 200.7020 239.9908 16.49371243103244"
        }
      }
    },
    "kitsat-3-25756": {
      "fetchedAt": "2026-03-20T16:26:01.420Z",
      "fleetEntry": {
        "id": "kitsat-3-25756",
        "name": "KITSAT 3",
        "englishName": "KITSAT 3",
        "domesticName": "KITSAT 3",
        "color": "#79c6a5",
        "norad": "25756",
        "orbitClass": "leo",
        "orbitLabel": "LEO SSO",
        "missionType": "technology",
        "missionLabel": "기술실증/학술",
        "operationalStatus": "비현역",
        "objectId": "1999-029A",
        "launchDate": "1999-05-26",
        "sourceDate": "2026-03-20",
        "sourceLabel": "Space-Track cached GP",
        "omm": {
          "CCSDS_OMM_VERS": "3.0",
          "COMMENT": "GENERATED VIA SPACE-TRACK.ORG API",
          "CREATION_DATE": "2026-03-20T14:36:41",
          "ORIGINATOR": "18 SPCS",
          "OBJECT_NAME": "KITSAT 3",
          "OBJECT_ID": "1999-029A",
          "CENTER_NAME": "EARTH",
          "REF_FRAME": "TEME",
          "TIME_SYSTEM": "UTC",
          "MEAN_ELEMENT_THEORY": "SGP4",
          "EPOCH": "2026-03-20T08:11:15.522432",
          "MEAN_MOTION": 14.5575233,
          "ECCENTRICITY": 0.0013465,
          "INCLINATION": 98.6285,
          "RA_OF_ASC_NODE": 112.0129,
          "ARG_OF_PERICENTER": 169.6359,
          "MEAN_ANOMALY": 190.5117,
          "EPHEMERIS_TYPE": 0,
          "CLASSIFICATION_TYPE": "U",
          "NORAD_CAT_ID": 25756,
          "ELEMENT_SET_NO": 999,
          "REV_AT_EPOCH": 42210,
          "BSTAR": 0.000057503,
          "MEAN_MOTION_DOT": 0.00000203,
          "MEAN_MOTION_DDOT": 0,
          "SEMIMAJOR_AXIS": "7085.060",
          "PERIOD": "98.918",
          "APOAPSIS": "716.465",
          "PERIAPSIS": "697.385",
          "OBJECT_TYPE": "PAYLOAD",
          "RCS_SIZE": "MEDIUM",
          "COUNTRY_CODE": "SKOR",
          "LAUNCH_DATE": "1999-05-26",
          "SITE": "SRI",
          "DECAY_DATE": null,
          "FILE": "5093607",
          "GP_ID": "316576388",
          "TLE_LINE0": "0 KITSAT 3",
          "TLE_LINE1": "1 25756U 99029A   26079.34115188  .00000203  00000-0  57503-4 0  9998",
          "TLE_LINE2": "2 25756  98.6285 112.0129 0013465 169.6359 190.5117 14.55752330422107"
        }
      }
    },
    "abs-7-koreasat-3-25894": {
      "fetchedAt": "2026-03-20T16:26:01.420Z",
      "fleetEntry": {
        "id": "abs-7-koreasat-3-25894",
        "name": "ABS 7 (KOREASAT 3)",
        "englishName": "ABS 7 (KOREASAT 3)",
        "domesticName": "ABS 7 (KOREASAT 3)",
        "color": "#9ad1d4",
        "norad": "25894",
        "orbitClass": "geo",
        "orbitLabel": "GEO",
        "missionType": "communications",
        "missionLabel": "상업 통신",
        "operationalStatus": "비현역",
        "objectId": "1999-046A",
        "launchDate": "1999-09-04",
        "sourceDate": "2026-03-20",
        "sourceLabel": "Space-Track cached GP",
        "omm": {
          "CCSDS_OMM_VERS": "3.0",
          "COMMENT": "GENERATED VIA SPACE-TRACK.ORG API",
          "CREATION_DATE": "2026-03-20T14:36:41",
          "ORIGINATOR": "18 SPCS",
          "OBJECT_NAME": "ABS 7 (KOREASAT 3)",
          "OBJECT_ID": "1999-046A",
          "CENTER_NAME": "EARTH",
          "REF_FRAME": "TEME",
          "TIME_SYSTEM": "UTC",
          "MEAN_ELEMENT_THEORY": "SGP4",
          "EPOCH": "2026-03-20T05:44:23.443872",
          "MEAN_MOTION": 0.99974902,
          "ECCENTRICITY": 0.0004172,
          "INCLINATION": 6.2529,
          "RA_OF_ASC_NODE": 71.8306,
          "ARG_OF_PERICENTER": 259.2917,
          "MEAN_ANOMALY": 120.8207,
          "EPHEMERIS_TYPE": 0,
          "CLASSIFICATION_TYPE": "U",
          "NORAD_CAT_ID": 25894,
          "ELEMENT_SET_NO": 999,
          "REV_AT_EPOCH": 9619,
          "BSTAR": 0,
          "MEAN_MOTION_DOT": 5.9e-7,
          "MEAN_MOTION_DDOT": 0,
          "SEMIMAJOR_AXIS": "42248.165",
          "PERIOD": "1440.362",
          "APOAPSIS": "35887.656",
          "PERIAPSIS": "35852.404",
          "OBJECT_TYPE": "PAYLOAD",
          "RCS_SIZE": "LARGE",
          "COUNTRY_CODE": "SKOR",
          "LAUNCH_DATE": "1999-09-04",
          "SITE": "FRGUI",
          "DECAY_DATE": null,
          "FILE": "5093610",
          "GP_ID": "316576428",
          "TLE_LINE0": "0 ABS 7 (KOREASAT 3)",
          "TLE_LINE1": "1 25894U 99046A   26079.23916023  .00000059  00000-0  00000+0 0  9999",
          "TLE_LINE2": "2 25894   6.2529  71.8306 0004172 259.2917 120.8207  0.99974902 96192"
        }
      }
    }
  }
}